0 IRIDIUM 84
1 25530U 98066D   13281.84507243  .00000413  00000-0  14027-3 0  3070
2 25530 086.4014 193.1905 0002018 099.3799 260.7625 14.34222662783889
0 IRIDIUM 84
1 25530U 98066D   13283.31021172  .00000168  00000-0  53000-4 0  3089
2 25530 086.4014 192.5790 0002045 099.1356 261.0071 14.34218352784095
0 IRIDIUM 84
1 25530U 98066D   13284.35673904  .00000353  00000-0  11899-3 0  3096
2 25530 086.4015 192.1423 0002019 099.2093 260.9331 14.34219518784244
0 IRIDIUM 84
1 25530U 98066D   13284.35673904  .00000353  00000-0  11899-3 0  3108
2 25530 086.4015 192.1423 0002019 099.2093 260.9331 14.34219518784244
0 IRIDIUM 84
1 25530U 98066D   13285.33349714  .00000340  00000-0  11451-3 0  3117
2 25530 086.4015 191.7346 0002011 099.4676 260.6748 14.34220148784389
0 IRIDIUM 84
1 25530U 98066D   13286.31025473  .00000361  00000-0  12182-3 0  3125
2 25530 086.4015 191.3270 0002010 099.7511 260.3912 14.34220588784525
0 IRIDIUM 84
1 25530U 98066D   13287.35678031  .00000411  00000-0  13960-3 0  3136
2 25530 086.4014 190.8903 0002004 099.9966 260.1456 14.34221384784672
0 IRIDIUM 84
1 25530U 98066D   13287.35678031  .00000411  00000-0  13960-3 0  3147
2 25530 086.4014 190.8903 0002004 099.9966 260.1456 14.34221384784672
0 IRIDIUM 84
1 25530U 98066D   13288.40330515  .00000558  00000-0  19223-3 0  3157
2 25530 086.4012 190.4536 0001991 100.1440 259.9980 14.34223019784826
0 IRIDIUM 84
1 25530U 98066D   13288.40330515  .00000558  00000-0  19223-3 0  3168
2 25530 086.4012 190.4536 0001991 100.1440 259.9980 14.34223019784826
0 IRIDIUM 84
1 25530U 98066D   13289.44982921  .00000434  00000-0  14798-3 0  3173
2 25530 086.4010 190.0169 0001989 100.8482 259.2938 14.34224383784979
0 IRIDIUM 84
1 25530U 98066D   13289.44982921  .00000434  00000-0  14798-3 0  3184
2 25530 086.4010 190.0169 0001989 100.8482 259.2938 14.34224383784979
0 IRIDIUM 84
1 25530U 98066D   13290.35681605  .00000473  00000-0  16190-3 0  3193
2 25530 086.4009 189.6385 0001992 100.7206 259.4214 14.34225056785101
0 IRIDIUM 84
1 25530U 98066D   13291.33357693  .00000454  00000-0  15502-3 0  3206
2 25530 086.4008 189.2309 0002324 091.8303 268.3159 14.34215614785241
0 IRIDIUM 84
1 25530U 98066D   13291.33357693  .00000454  00000-0  15502-3 0  3217
2 25530 086.4008 189.2309 0002324 091.8303 268.3159 14.34215614785241
0 IRIDIUM 84
1 25530U 98066D   13292.44987255  .00000445  00000-0  15166-3 0  3220
2 25530 086.4004 188.7651 0002018 101.1808 258.9615 14.34217046785407
0 IRIDIUM 84
1 25530U 98066D   13292.44987255  .00000445  00000-0  15166-3 0  3231
2 25530 086.4004 188.7651 0002018 101.1808 258.9615 14.34217046785407
0 IRIDIUM 84
1 25530U 98066D   13293.28709532  .00000466  00000-0  15941-3 0  3249
2 25530 086.4004 188.4156 0002020 101.6216 258.5207 14.34217869785524
0 IRIDIUM 84
1 25530U 98066D   13294.26385461  .00000456  00000-0  15569-3 0  3255
2 25530 086.4003 188.0079 0002015 101.7364 258.4058 14.34219047785660
0 IRIDIUM 84
1 25530U 98066D   13295.38015000  .00000454  00000-0  15519-3 0  3262
2 25530 086.4003 187.5421 0002000 101.9754 258.1666 14.34220023785820
0 IRIDIUM 84
1 25530U 98066D   13295.38015000  .00000454  00000-0  15519-3 0  3273
2 25530 086.4003 187.5421 0002000 101.9754 258.1666 14.34220023785820
